[{"OBJECT_NAME":"TRANSPORTER-12 OBJECT BT","OBJECT_ID":"2025-009BT","EPOCH":"2026-03-09T17:08:24.281088","MEAN_MOTION":15.27872239,"ECCENTRICITY":0.00036816,"INCLINATION":97.4094,"RA_OF_ASC_NODE":151.5992,"ARG_OF_PERICENTER":313.5044,"MEAN_ANOMALY":46.5889,"EPHEMERIS_TYPE":0,"CLASSIFICATION_TYPE":"U","NORAD_CAT_ID":62674,"ELEMENT_SET_NO":999,"REV_AT_EPOCH":12136,"BSTAR":0.000510288,"MEAN_MOTION_DOT":0.00013824,"MEAN_MOTION_DDOT":0},{"OBJECT_NAME":"STARLINK-33896","OBJECT_ID":"2025-093AB","EPOCH":"2026-03-09T21:45:03.921696","MEAN_MOTION":15.27587038,"ECCENTRICITY":0.00010507,"INCLINATION":43.0003,"RA_OF_ASC_NODE":76.7988,"ARG_OF_PERICENTER":259.929,"MEAN_ANOMALY":100.1443,"EPHEMERIS_TYPE":0,"CLASSIFICATION_TYPE":"U","NORAD_CAT_ID":63861,"ELEMENT_SET_NO":999,"REV_AT_EPOCH":4778,"BSTAR":0.00069706536,"MEAN_MOTION_DOT":0.00018973,"MEAN_MOTION_DDOT":0}]
